STARLINK-30865          
1 58226U 23170W   26068.00004630  .00006399  00000+0  24826-3 0  9992
2 58226  42.9990 186.7067 0001357 243.4599 281.8761 15.26709308  5745
NUSAT-45 (UZMASAT-1)    
1 62640U 25009AH  26068.15592621  .00012539  00000+0  48087-3 0  9996
2 62640  97.3985 150.3373 0001172   1.4631 358.6611 15.26632732 63634
